ONEWEB-0196             
1 48218U 21031J   25015.54001648 -.00000168  00000+0 -48654-3 0  9997
2 48218  87.8988  32.6321 0001818  94.2451 265.8886 13.14504420180223
ONEWEB-0183             
1 48219U 21031K   25015.59073538 -.00000059  00000+0 -19298-3 0  9991
2 48219  87.8987  32.6364 0001868  86.7658 273.3685 13.14500495180320
ONEWEB-0185             
1 48220U 21031L   25015.54078882 -.00000136  00000+0 -40040-3 0  9990
2 48220  87.8987  32.6167 0002078  90.2994 269.8374 13.14501631180249
ONEWEB-0187             
1 48221U 21031M   25015.58678103  .00000013  00000+0  13770-5 0  9991
2 48221  87.8987  32.6432 0001907  89.2820 270.8529 13.14501373180260
ONEWEB-0192             
1 48222U 21031N   25015.56695668  .00000313  00000+0  80985-3 0  9998
2 48222  87.8986  32.6446 0001836  95.8707 264.2632 13.14502467180170
ONEWEB-0219             
1 48223U 21031P   25015.54633431 -.00000054  00000+0 -18114-3 0  9996
2 48223  87.8989  32.6221 0002004  91.5312 268.6047 13.14502424180371
ONEWEB-0202             
1 48224U 21031Q   25015.60344875 -.00000218  00000+0 -62233-3 0  9998
2 48224  87.8985  32.6273 0002325 109.7527 250.3854 13.14503314180363
ONEWEB-0204             
1 48225U 21031R   25015.56141455  .00000251  00000+0  64122-3 0  9997
2 48225  87.8985  32.6480 0001790  80.6371 279.4961 13.14504999180263
